{
  "type": "FeatureCollection",
  "features": [
    {
      "type": "Feature",
      "properties": {
        "road_name": "จุดที่ 1: ถนนบอนด์สตรีท (จากติวาานนท์-แจ้งวัฒนะ)",
        "water_depth": "40 ซม.",
        "status": "รถเล็กไม่สามารถสัญจรได้ รถกระบะ ยกสูง สัญจรด้วยความระมัดระวัง",
        "color": "#FFD700",
        "updated": "27 ก.ย. 2026 - 15:10 น."
      },
      "geometry": {
        "type": "LineString",
        "coordinates": [
          [100.5307942, 13.9299585],
          [100.539875, 13.919703],
          [100.540363, 13.918941],
          [100.5405964, 13.9179113],
          [100.5393007, 13.9122795],
          [100.5379741, 13.9093325],
          [100.5378489, 13.9074559],
          [100.5380512, 13.9045379],
          [100.5381563, 13.9019473],
          [100.5380197, 13.9012639]
        ]
      }
    },
    {
      "type": "Feature",
      "properties": {
        "road_name": "จุดที่ 2: ถนนวงเวียน Impact - แยกกรมที่ดิน",
        "water_depth": "35 ซม.",
        "status": "รถเล็กไม่สามารถสัญจรได้ รถกระบะ ยกสูง สัญจรด้วยความระมัดระวัง",
        "color": "#FFD700",
        "updated": "27 ก.ย. 2026 - 15:10 น."
      },
      "geometry": {
        "type": "LineString",
        "coordinates": [
          [100.5450, 13.9120],
          [100.5485, 13.9110]
        ]
      }
    },
    {
      "type": "Feature",
      "properties": {
        "road_name": "จุดที่ 3: แยก Culinova - แยกไฟแดง IF ปิดการจราจร",
        "water_depth": "50 ซม.",
        "status": "ปิดการจราจร",
        "color": "#DC143C",
        "updated": "27 ก.ย. 2026 - 15:15 น."
      },
      "geometry": {
        "type": "LineString",
        "coordinates": [
          [100.5406179, 13.9179567],
          [100.5453231, 13.9171921]
        ]
      }
    }
  ]
}
